NORAD_CAT_ID,OBJECT_NAME,OBJECT_TYPE,EPOCH,MEAN_MOTION,ECCENTRICITY,INCLINATION,RA_OF_ASC_NODE,ARG_OF_PERICENTER,MEAN_ANOMALY,BSTAR,MEAN_MOTION_DOT,MEAN_MOTION_DDOT,TLE_LINE0,TLE_LINE1,TLE_LINE2,SEMIMAJOR_AXIS,PERIOD,APOGEE,PERIGEE,DECAYED
52090.0,STARLINK-3712,PAYLOAD,2023-04-20 19:13:35,15.08825006,0.0001245,53.2152,140.2086,89.7775,270.336,-7.8267e-05,-1.533e-05,0.0,0 STARLINK-3712,1 52090U 22029C   23110.80110729 -.00001533  00000-0 -78267-4 0  9994,2 52090  53.2152 140.2086 0001245  89.7775 270.3360 15.08825006 61555,6917.926,95.439,540.653,538.93,0.0
52090.0,STARLINK-3712,PAYLOAD,2023-04-21 07:56:41,15.08824908,0.0001196,53.2149,137.8306,87.4102,272.7027,0.00018652,2.681e-05,0.0,0 STARLINK-3712,1 52090U 22029C   23111.33103391  .00002681  00000-0  18652-3 0  9994,2 52090  53.2149 137.8306 0001196  87.4102 272.7027 15.08824908 61637,6917.927,95.439,540.619,538.964,0.0
52090.0,STARLINK-3712,PAYLOAD,2023-04-21 11:07:27,15.08827006,0.0001207,53.2142,137.2362,90.7343,269.3787,0.0001872,2.692e-05,0.0,0 STARLINK-3712,1 52090U 22029C   23111.46351233  .00002692  00000-0  18720-3 0  9996,2 52090  53.2142 137.2362 0001207  90.7343 269.3787 15.08827006 61652,6917.92,95.438,540.62,538.95,0.0
52090.0,STARLINK-3712,PAYLOAD,2023-04-22 12:33:37,15.08854064,0.0001139,53.2143,132.4787,83.9392,276.173,0.00070894,0.00011017,0.0,0 STARLINK-3712,1 52090U 22029C   23112.52335251  .00011017  00000-0  70894-3 0  9997,2 52090  53.2143 132.4787 0001139  83.9392 276.1730 15.08854064 61819,6917.837,95.437,540.49,538.914,0.0
52090.0,STARLINK-3712,PAYLOAD,2023-04-22 18:55:10,15.08851438,0.0001454,53.2147,131.2907,60.2854,299.8282,0.00048129,7.382e-05,0.0,0 STARLINK-3712,1 52090U 22029C   23112.78831336  .00007382  00000-0  48129-3 0  9996,2 52090  53.2147 131.2907 0001454  60.2854 299.8282 15.08851438 61855,6917.845,95.437,540.716,538.705,0.0
52090.0,STARLINK-3712,PAYLOAD,2023-04-23 10:49:01,15.08854615,0.0001406,53.2146,128.3183,68.0082,292.106,0.00033923,5.117e-05,0.0,0 STARLINK-3712,1 52090U 22029C   23113.45070865  .00005117  00000-0  33923-3 0  9993,2 52090  53.2146 128.3183 0001406  68.0082 292.1060 15.08854615 61954,6917.836,95.437,540.673,538.728,0.0
52090.0,STARLINK-3712,PAYLOAD,2023-04-23 12:24:24,15.0885346,0.0001414,53.2145,128.0205,68.627,291.4873,0.00029309,4.381e-05,0.0,0 STARLINK-3712,1 52090U 22029C   23113.51694843  .00004381  00000-0  29309-3 0  9993,2 52090  53.2145 128.0205 0001414  68.6270 291.4873 15.08853460 61961,6917.839,95.437,540.682,538.726,0.0
52090.0,STARLINK-3712,PAYLOAD,2023-04-24 12:15:10,15.0885627,6.28e-05,53.2166,123.5578,159.8159,200.2858,0.00026693,3.965e-05,0.0,0 STARLINK-3712,1 52090U 22029C   23114.51053814  .00003965  00000-0  26693-3 0  9991,2 52090  53.2166 123.5578 0000628 159.8159 200.2858 15.08856270 62113,6917.831,95.437,540.13,539.261,0.0
52090.0,STARLINK-3712,PAYLOAD,2023-04-25 10:30:35,15.08842873,0.0001285,53.2174,119.3937,87.4132,272.7007,-2.9496e-06,-3.35e-06,0.0,0 STARLINK-3712,1 52090U 22029C   23115.43790718 -.00000335  00000-0 -29496-5 0  9990,2 52090  53.2174 119.3937 0001285  87.4132 272.7007 15.08842873 62250,6917.872,95.437,540.626,538.848,0.0
52090.0,STARLINK-3712,PAYLOAD,2023-04-26 10:21:23,15.08823497,9.52e-05,53.2179,114.933,95.9845,264.1255,1.782e-05,-4e-08,0.0,0 STARLINK-3712,1 52090U 22029C   23116.43152189 -.00000004  00000-0  17820-4 0  9994,2 52090  53.2179 114.9330 0000952  95.9845 264.1255 15.08823497 62406,6917.931,95.439,540.454,539.137,0.0
52090.0,STARLINK-3712,PAYLOAD,2023-04-26 16:42:55,15.08829073,0.000116,53.2171,113.7441,87.8616,272.2509,6.1349e-05,6.88e-06,0.0,0 STARLINK-3712,1 52090U 22029C   23116.69648021  .00000688  00000-0  61349-4 0  9999,2 52090  53.2171 113.7441 0001160  87.8616 272.2509 15.08829073 62448,6917.914,95.438,540.581,538.976,0.0
52090.0,STARLINK-3712,PAYLOAD,2023-04-27 08:36:47,15.08837252,0.0001304,53.2173,110.7703,84.9575,275.1566,7.527e-05,9.1e-06,0.0,0 STARLINK-3712,1 52090U 22029C   23117.35887821  .00000910  00000-0  75270-4 0  9992,2 52090  53.2173 110.7703 0001304  84.9575 275.1566 15.08837252 62544,6917.889,95.438,540.656,538.852,0.0
52090.0,STARLINK-3712,PAYLOAD,2023-04-28 08:27:33,15.08844776,0.0001182,53.2166,106.3104,90.2187,269.894,0.00017643,2.522e-05,0.0,0 STARLINK-3712,1 52090U 22029C   23118.35247206  .00002522  00000-0  17643-3 0  9990,2 52090  53.2166 106.3104 0001182  90.2187 269.8940 15.08844776 62696,6917.866,95.437,540.548,538.913,0.0
52090.0,STARLINK-3712,PAYLOAD,2023-04-29 05:07:35,15.08838897,0.0001329,53.2165,102.4449,91.3492,268.7653,2.8506e-05,1.66e-06,0.0,0 STARLINK-3712,1 52090U 22029C   23119.21359983  .00000166  00000-0  28506-4 0  9995,2 52090  53.2165 102.4449 0001329  91.3492 268.7653 15.08838897 62829,6917.884,95.438,540.668,538.829,0.0
52090.0,STARLINK-3712,PAYLOAD,2023-04-29 08:18:21,15.08842008,0.0001346,53.2163,101.8496,89.7006,270.4141,3.4093e-05,2.55e-06,0.0,0 STARLINK-3712,1 52090U 22029C   23119.34607747  .00000255  00000-0  34093-4 0  9990,2 52090  53.2163 101.8496 0001346  89.7006 270.4141 15.08842008 62846,6917.874,95.437,540.67,538.808,0.0
52090.0,STARLINK-3712,PAYLOAD,2023-04-30 08:09:07,15.08847764,0.0001456,53.2166,97.3884,95.5498,264.5661,4.6393e-05,4.51e-06,0.0,0 STARLINK-3712,1 52090U 22029C   23120.33967011  .00000451  00000-0  46393-4 0  9998,2 52090  53.2166  97.3884 0001456  95.5498 264.5661 15.08847764 62992,6917.857,95.437,540.729,538.714,0.0
52090.0,STARLINK-3712,PAYLOAD,2023-05-01 04:49:08,15.08838229,0.0001371,53.2173,93.5229,92.4321,267.6828,2.3526e-06,-2.5e-06,0.0,0 STARLINK-3712,1 52090U 22029C   23121.20079772 -.00000250  00000-0  23526-5 0  9995,2 52090  53.2173  93.5229 0001371  92.4321 267.6828 15.08838229 63129,6917.886,95.438,540.699,538.802,0.0
52090.0,STARLINK-3712,PAYLOAD,2023-05-01 22:18:23,15.08836595,0.000158,53.2186,90.2486,106.3876,253.729,-2.8063e-06,-3.33e-06,0.0,0 STARLINK-3712,1 52090U 22029C   23121.92943919 -.00000333  00000-0 -28063-5 0  9991,2 52090  53.2186  90.2486 0001580 106.3876 253.7290 15.08836595 63239,6917.891,95.438,540.849,538.663,0.0
52090.0,STARLINK-3712,PAYLOAD,2023-05-02 07:50:42,15.08840713,0.0001414,53.2184,88.468,92.5459,267.5695,3.1399e-05,2.12e-06,0.0,0 STARLINK-3712,1 52090U 22029C   23122.32687670  .00000212  00000-0  31399-4 0  9994,2 52090  53.2184  88.4680 0001414  92.5459 267.5695 15.08840713 63296,6917.878,95.438,540.721,538.765,0.0
52090.0,STARLINK-3712,PAYLOAD,2023-05-02 14:12:14,15.08841324,0.000133,53.218,87.279,93.4644,266.65,-7.1965e-06,-4.02e-06,0.0,0 STARLINK-3712,1 52090U 22029C   23122.59183722 -.00000402  00000-0 -71965-5 0  9999,2 52090  53.2180  87.2790 0001330  93.4644 266.6500 15.08841324 63333,6917.876,95.437,540.661,538.821,0.0
52090.0,STARLINK-3712,PAYLOAD,2023-05-03 07:41:29,15.08837903,0.0001341,53.2172,84.0093,95.26,264.8545,7.5706e-05,9.17e-06,0.0,0 STARLINK-3712,1 52090U 22029C   23123.32047940  .00000917  00000-0  75706-4 0  9997,2 52090  53.2172  84.0093 0001341  95.2600 264.8545 15.08837903 63448,6917.887,95.438,540.679,538.824,0.0
52090.0,STARLINK-3712,PAYLOAD,2023-05-03 21:59:58,15.08834239,0.0001251,53.2171,81.3325,91.6789,268.4346,-1.2313e-06,-3.07e-06,0.0,0 STARLINK-3712,1 52090U 22029C   23123.91664600 -.00000307  00000-0 -12313-5 0  9991,2 52090  53.2171  81.3325 0001251  91.6789 268.4346 15.08834239 63531,6917.898,95.438,540.628,538.898,0.0
52090.0,STARLINK-3712,PAYLOAD,2023-05-04 01:10:44,15.08835571,0.0001247,53.2173,80.7377,92.4994,267.6141,7.8813e-06,-1.62e-06,0.0,0 STARLINK-3712,1 52090U 22029C   23124.04912513 -.00000162  00000-0  78813-5 0  9990,2 52090  53.2173  80.7377 0001247  92.4994 267.6141 15.08835571 63551,6917.894,95.438,540.622,538.896,0.0
52090.0,STARLINK-3712,PAYLOAD,2023-05-04 07:32:16,15.08840402,0.0001245,53.2173,79.5483,91.9068,268.2067,4.5852e-05,4.42e-06,0.0,0 STARLINK-3712,1 52090U 22029C   23124.31408120  .00000442  00000-0  45852-4 0  9990,2 52090  53.2173  79.5483 0001245  91.9068 268.2067 15.08840402 63596,6917.879,95.438,540.605,538.883,0.0
52090.0,STARLINK-3712,PAYLOAD,2023-05-05 04:12:17,15.08836841,0.0001309,53.2185,75.6824,93.7144,266.3998,2.4848e-05,1.08e-06,0.0,0 STARLINK-3712,1 52090U 22029C   23125.17520649  .00000108  00000-0  24848-4 0  9997,2 52090  53.2185  75.6824 0001309  93.7144 266.3998 15.08836841 63720,6917.89,95.438,540.661,538.849,0.0
52090.0,STARLINK-3712,PAYLOAD,2023-05-05 05:47:40,15.08843215,0.0001279,53.2176,75.3853,93.0332,267.0806,7.2104e-05,8.6e-06,0.0,0 STARLINK-3712,1 52090U 22029C   23125.24144090  .00000860  00000-0  72104-4 0  9990,2 52090  53.2176  75.3853 0001279  93.0332 267.0806 15.08843215 63737,6917.871,95.437,540.62,538.851,0.0
52090.0,STARLINK-3712,PAYLOAD,2023-05-06 05:38:27,15.08844006,0.0001279,53.2177,70.9237,95.0709,265.0429,7.9118e-05,9.72e-06,0.0,0 STARLINK-3712,1 52090U 22029C   23126.23504206  .00000972  00000-0  79118-4 0  9995,2 52090  53.2177  70.9237 0001279  95.0709 265.0429 15.08844006 63889,6917.868,95.437,540.618,538.848,0.0
52090.0,STARLINK-3712,PAYLOAD,2023-05-07 02:18:28,15.08845303,0.0001245,53.2178,67.0577,94.4254,265.688,5.2657e-05,5.5e-06,0.0,0 STARLINK-3712,1 52090U 22029C   23127.09616115  .00000550  00000-0  52657-4 0  9994,2 52090  53.2178  67.0577 0001245  94.4254 265.6880 15.08845303 64019,6917.864,95.437,540.59,538.868,0.0
52090.0,STARLINK-3712,PAYLOAD,2023-05-07 05:29:13,15.08854042,0.0001215,53.2181,66.462,88.9142,271.199,0.00011316,1.514e-05,0.0,0 STARLINK-3712,1 52090U 22029C   23127.22863360  .00001514  00000-0  11316-3 0  9992,2 52090  53.2181  66.4620 0001215  88.9142 271.1990 15.08854042 64032,6917.837,95.437,540.543,538.862,0.0
52090.0,STARLINK-3712,PAYLOAD,2023-05-08 02:09:16,15.08833759,0.0001214,53.218,62.5973,102.181,257.9318,-5.8515e-05,-1.219e-05,0.0,0 STARLINK-3712,1 52090U 22029C   23128.08977336 -.00001219  00000-0 -58515-4 0  9993,2 52090  53.2180  62.5973 0001214 102.1810 257.9318 15.08833759 64161,6917.899,95.438,540.604,538.925,0.0
